{"type": "FeatureCollection", "features": [ {"type": "Feature", "properties": {"norad_id": 40115, "name": "WORLDVIEW-3 (WV-3)", "group": "resource", "lat": 35.285894686409364, "lon": 45.66703557702797, "alt_km": 612.6505810541121, "timestamp": "2025-12-04T21:36:15.531451+00:00", "meta": {"OBJECT_NAME": "WORLDVIEW-3 (WV-3)", "OBJECT_ID": "2014-048A", "EPOCH": "2025-12-04T14:58:39.393984", "MEAN_MOTION": 14.85480359, "ECCENTRICITY": 0.00041806, "INCLINATION": 97.8628, "RA_OF_ASC_NODE": 51.0066, "ARG_OF_PERICENTER": 213.4959, "MEAN_ANOMALY": 146.5992, "EPHEMERIS_TYPE": 0, "CLASSIFICATION_TYPE": "U", "NORAD_CAT_ID": 40115, "ELEMENT_SET_NO": 999, "REV_AT_EPOCH": 61303, "BSTAR": 0.00036025709, "MEAN_MOTION_DOT": 3.056e-05, "MEAN_MOTION_DDOT": 0}, "tle": {"line1": "1 40115U 14048A   25338.62406706  .00003056  00000+0  36026-3 0  9993", "line2": "2 40115  97.8628  51.0066 0004180 213.4959 146.5992 14.85480359613033"}}, "geometry": {"type": "Point", "coordinates": [45.66703557702797, 35.285894686409364]}}, {"type": "Feature", "properties": {"norad_id": 40118, "name": "GAOFEN-2", "group": "resource", "lat": -8.97915438024018, "lon": 39.33444768148795, "alt_km": 636.2944210826445, "timestamp": "2025-12-04T21:36:15.531461+00:00", "meta": {"OBJECT_NAME": "GAOFEN-2", "OBJECT_ID": "2014-049A", "EPOCH": "2025-12-04T15:09:26.516160", "MEAN_MOTION": 14.80586343, "ECCENTRICITY": 0.00082767, "INCLINATION": 98.0397, "RA_OF_ASC_NODE": 37.7856, "ARG_OF_PERICENTER": 136.3218, "MEAN_ANOMALY": 223.865, "EPHEMERIS_TYPE": 0, "CLASSIFICATION_TYPE": "U", "NORAD_CAT_ID": 40118, "ELEMENT_SET_NO": 999, "REV_AT_EPOCH": 61044, "BSTAR": 0.00020320068, "MEAN_MOTION_DOT": 1.506e-05, "MEAN_MOTION_DDOT": 0}, "tle": {"line1": "1 40118U 14049A   25338.63155690  .00001506  00000+0  20320-3 0  9999", "line2": "2 40118  98.0397  37.7856 0008276 136.3218 223.8650 14.80586343610448"}}, "geometry": {"type": "Point", "coordinates": [39.33444768148795, -8.97915438024018]}}, {"type": "Feature", "properties": {"norad_id": 40143, "name": "YAOGAN-21", "group": "resource", "lat": -3.309168893941571, "lon": -157.8627552390357, "alt_km": 501.97068647487595, "timestamp": "2025-12-04T21:36:15.531471+00:00", "meta": {"OBJECT_NAME": "YAOGAN-21", "OBJECT_ID": "2014-053A", "EPOCH": "2025-12-04T16:04:28.720704", "MEAN_MOTION": 15.2352512, "ECCENTRICITY": 0.00101911, "INCLINATION": 97.1769, "RA_OF_ASC_NODE": 22.3343, "ARG_OF_PERICENTER": 66.3362, "MEAN_ANOMALY": 293.8944, "EPHEMERIS_TYPE": 0, "CLASSIFICATION_TYPE": "U", "NORAD_CAT_ID": 40143, "ELEMENT_SET_NO": 999, "REV_AT_EPOCH": 62531, "BSTAR": 0.00060852978, "MEAN_MOTION_DOT": 0.00014501, "MEAN_MOTION_DDOT": 0}, "tle": {"line1": "1 40143U 14053A   25338.66977686  .00014501  00000+0  60853-3 0  9996", "line2": "2 40143  97.1769  22.3343 0010191  66.3362 293.8944 15.23525120625310"}}, "geometry": {"type": "Point", "coordinates": [-157.8627552390357, -3.309168893941571]}}, {"type": "Feature", "properties": {"norad_id": 40275, "name": "YAOGAN-22", "group": "resource", "lat": 57.672785495674354, "lon": -40.33689323282031, "alt_km": 1199.9040631677253, "timestamp": "2025-12-04T21:36:15.531482+00:00", "meta": {"OBJECT_NAME": "YAOGAN-22", "OBJECT_ID": "2014-063A", "EPOCH": "2025-12-04T08:12:58.061088", "MEAN_MOTION": 13.15522481, "ECCENTRICITY": 0.00058853, "INCLINATION": 100.7418, "RA_OF_ASC_NODE": 121.6434, "ARG_OF_PERICENTER": 268.4921, "MEAN_ANOMALY": 91.5516, "EPHEMERIS_TYPE": 0, "CLASSIFICATION_TYPE": "U", "NORAD_CAT_ID": 40275, "ELEMENT_SET_NO": 999, "REV_AT_EPOCH": 53419, "BSTAR": 0.00013703687, "MEAN_MOTION_DOT": 5e-08, "MEAN_MOTION_DDOT": 0}, "tle": {"line1": "1 40275U 14063A   25338.34233867  .00000005  00000+0  13704-3 0  9991", "line2": "2 40275 100.7418 121.6434 0005885 268.4921  91.5516 13.15522481534191"}}, "geometry": {"type": "Point", "coordinates": [-40.33689323282031, 57.672785495674354]}}, {"type": "Feature", "properties": {"norad_id": 40298, "name": "ASNARO", "group": "resource", "lat": -9.845186163290194, "lon": 56.32682663491621, "alt_km": 515.6316527743602, "timestamp": "2025-12-04T21:36:15.531492+00:00", "meta": {"OBJECT_NAME": "ASNARO", "OBJECT_ID": "2014-070A", "EPOCH": "2025-12-04T15:19:29.870688", "MEAN_MOTION": 15.19235689, "ECCENTRICITY": 0.00052003, "INCLINATION": 97.3668, "RA_OF_ASC_NODE": 54.7851, "ARG_OF_PERICENTER": 146.1685, "MEAN_ANOMALY": 213.9883, "EPHEMERIS_TYPE": 0, "CLASSIFICATION_TYPE": "U", "NORAD_CAT_ID": 40298, "ELEMENT_SET_NO": 999, "REV_AT_EPOCH": 61446, "BSTAR": 0.0012833047, "MEAN_MOTION_DOT": 0.00027056, "MEAN_MOTION_DDOT": 0}, "tle": {"line1": "1 40298U 14070A   25338.63854017  .00027056  00000+0  12833-2 0  9998", "line2": "2 40298  97.3668  54.7851 0005200 146.1685 213.9883 15.19235689614466"}}, "geometry": {"type": "Point", "coordinates": [56.32682663491621, -9.845186163290194]}}, {"type": "Feature", "properties": {"norad_id": 40310, "name": "YAOGAN-24", "group": "resource", "lat": 77.45401657143866, "lon": -30.128246982346642, "alt_km": 629.5925323076845, "timestamp": "2025-12-04T21:36:15.531502+00:00", "meta": {"OBJECT_NAME": "YAOGAN-24", "OBJECT_ID": "2014-072A", "EPOCH": "2025-12-04T16:16:26.264928", "MEAN_MOTION": 14.76150528, "ECCENTRICITY": 0.00143336, "INCLINATION": 98.1218, "RA_OF_ASC_NODE": 109.7288, "ARG_OF_PERICENTER": 162.9733, "MEAN_ANOMALY": 197.196, "EPHEMERIS_TYPE": 0, "CLASSIFICATION_TYPE": "U", "NORAD_CAT_ID": 40310, "ELEMENT_SET_NO": 999, "REV_AT_EPOCH": 59502, "BSTAR": 0.00027758904, "MEAN_MOTION_DOT": 1.868e-05, "MEAN_MOTION_DDOT": 0}, "tle": {"line1": "1 40310U 14072A   25338.67808177  .00001868  00000+0  27759-3 0  9992", "line2": "2 40310  98.1218 109.7288 0014333 162.9733 197.1960 14.76150528595022"}}, "geometry": {"type": "Point", "coordinates": [-30.128246982346642, 77.45401657143866]}}, {"type": "Feature", "properties": {"norad_id": 40336, "name": "CBERS 4", "group": "resource", "lat": -80.64270618784971, "lon": 154.39247199538545, "alt_km": 781.5384063302154, "timestamp": "2025-12-04T21:36:15.531512+00:00", "meta": {"OBJECT_NAME": "CBERS 4", "OBJECT_ID": "2014-079A", "EPOCH": "2025-12-04T15:21:06.019200", "MEAN_MOTION": 14.35513109, "ECCENTRICITY": 0.00014577, "INCLINATION": 98.3321, "RA_OF_ASC_NODE": 36.9334, "ARG_OF_PERICENTER": 123.0182, "MEAN_ANOMALY": 237.1144, "EPHEMERIS_TYPE": 0, "CLASSIFICATION_TYPE": "U", "NORAD_CAT_ID": 40336, "ELEMENT_SET_NO": 999, "REV_AT_EPOCH": 57604, "BSTAR": 0.00012795299, "MEAN_MOTION_DOT": 3.26e-06, "MEAN_MOTION_DDOT": 0}, "tle": {"line1": "1 40336U 14079A   25338.63965300  .00000326  00000+0  12795-3 0  9997", "line2": "2 40336  98.3321  36.9334 0001457 123.0182 237.1144 14.35513109576042"}}, "geometry": {"type": "Point", "coordinates": [154.39247199538545, -80.64270618784971]}}, {"type": "Feature", "properties": {"norad_id": 40362, "name": "YAOGAN-26", "group": "resource", "lat": -1.7881572409653401, "lon": 159.63446347378866, "alt_km": 455.9830663070634, "timestamp": "2025-12-04T21:36:15.531523+00:00", "meta": {"OBJECT_NAME": "YAOGAN-26", "OBJECT_ID": "2014-088A", "EPOCH": "2025-12-04T14:34:31.575360", "MEAN_MOTION": 15.3886671, "ECCENTRICITY": 0.00072368, "INCLINATION": 97.0637, "RA_OF_ASC_NODE": 339.574, "ARG_OF_PERICENTER": 51.9198, "MEAN_ANOMALY": 308.27, "EPHEMERIS_TYPE": 0, "CLASSIFICATION_TYPE": "U", "NORAD_CAT_ID": 40362, "ELEMENT_SET_NO": 999, "REV_AT_EPOCH": 60769, "BSTAR": 0.00093506202, "MEAN_MOTION_DOT": 0.00036024, "MEAN_MOTION_DDOT": 0}, "tle": {"line1": "1 40362U 14088A   25338.60730990  .00036024  00000+0  93506-3 0  9991", "line2": "2 40362  97.0637 339.5740 0007236  51.9198 308.2700 15.38866710607694"}}, "geometry": {"type": "Point", "coordinates": [159.63446347378866, -1.7881572409653401]}}, {"type": "Feature", "properties": {"norad_id": 40376, "name": "SMAP", "group": "resource", "lat": 43.88469916461468, "lon": -24.164679834159013, "alt_km": 678.1154408855436, "timestamp": "2025-12-04T21:36:15.531533+00:00", "meta": {"OBJECT_NAME": "SMAP", "OBJECT_ID": "2015-003A", "EPOCH": "2025-12-04T14:50:15.394272", "MEAN_MOTION": 14.63329053, "ECCENTRICITY": 0.00012108, "INCLINATION": 98.1291, "RA_OF_ASC_NODE": 343.4592, "ARG_OF_PERICENTER": 87.1839, "MEAN_ANOMALY": 272.9502, "EPHEMERIS_TYPE": 0, "CLASSIFICATION_TYPE": "U", "NORAD_CAT_ID": 40376, "ELEMENT_SET_NO": 999, "REV_AT_EPOCH": 57916, "BSTAR": 0.00021730034, "MEAN_MOTION_DOT": 1.075e-05, "MEAN_MOTION_DDOT": 0}, "tle": {"line1": "1 40376U 15003A   25338.61823373  .00001075  00000+0  21730-3 0  9991", "line2": "2 40376  98.1291 343.4592 0001210  87.1839 272.9502 14.63329053579163"}}, "geometry": {"type": "Point", "coordinates": [-24.164679834159013, 43.88469916461468]}}, {"type": "Feature", "properties": {"norad_id": 40536, "name": "KOMPSAT-3A", "group": "resource", "lat": -9.124145711223147, "lon": -45.941942300833475, "alt_km": 442.2975663335437, "timestamp": "2025-12-04T21:36:15.531543+00:00", "meta": {"OBJECT_NAME": "KOMPSAT-3A", "OBJECT_ID": "2015-014A", "EPOCH": "2025-12-04T15:25:13.890432", "MEAN_MOTION": 15.43505259, "ECCENTRICITY": 0.00039123, "INCLINATION": 97.6775, "RA_OF_ASC_NODE": 312.5449, "ARG_OF_PERICENTER": 143.8577, "MEAN_ANOMALY": 216.2935, "EPHEMERIS_TYPE": 0, "CLASSIFICATION_TYPE": "U", "NORAD_CAT_ID": 40536, "ELEMENT_SET_NO": 999, "REV_AT_EPOCH": 59170, "BSTAR": 0.00076791631, "MEAN_MOTION_DOT": 0.00034445, "MEAN_MOTION_DDOT": 0}, "tle": {"line1": "1 40536U 15014A   25338.64252188  .00034445  00000+0  76792-3 0  9999", "line2": "2 40536  97.6775 312.5449 0003912 143.8577 216.2935 15.43505259591708"}}, "geometry": {"type": "Point", "coordinates": [-45.941942300833475, -9.124145711223147]}}]}